FENGYUN 3D              
1 43010U 17072A   26161.59320192 -.00000238  00000+0 -90687-4 0  9990
2 43010  99.0123 135.8962 0002656  72.5601 287.5865 14.19737266444052
NOAA 20 (JPSS-1)        
1 43013U 17073A   26161.58707139  .00000042  00000+0  41119-4 0  9990
2 43013  98.7772 101.1084 0000389  51.3333 308.7878 14.19510532443537
GOES 17                 
1 43226U 18022A   26161.53607558 -.00000165  00000+0  00000+0 0  9996
2 43226   0.9194  85.8321 0000523  20.0838 256.4799  1.00271146 30355
SENTINEL-3B             
1 43437U 18039A   26161.59748968  .00000080  00000+0  51181-4 0  9991
2 43437  98.6249 229.2242 0000823  80.1829 279.9444 14.26739879423188
FENGYUN 2H              
1 43491U 18050A   26161.49828117 -.00000114  00000+0  00000+0 0  9996
2 43491   3.0128  79.1544 0001684 128.6364 309.8929  1.00270758 29377
METOP-C                 
1 43689U 18087A   26161.59240235  .00000073  00000+0  53071-4 0  9999
2 43689  98.6646 221.3163 0001525 136.8562 223.2735 14.21510315393892
GEO-KOMPSAT-2A          
1 43823U 18100A   26161.49975120 -.00000326  00000+0  00000+0 0  9993
2 43823   0.0406 142.1603 0002206 303.3581 121.5075  1.00270047 27564
METEOR-M2 2             
1 44387U 19038A   26161.57128365  .00000239  00000+0  12343-3 0  9999
2 44387  98.9145 148.7590 0002246  57.9837 302.1559 14.24364928360356
ARKTIKA-M 1             
1 47719U 21016A   26160.51571443 -.00000149  00000+0  00000+0 0  9996
2 47719  63.2417  58.7595 7285674 269.8905  14.6803  2.00625436 38630
FENGYUN 3E              
1 49008U 21062A   26161.57780406 -.00000086  00000+0 -19954-4 0  9992
2 49008  98.7496 165.0595 0002762  96.1480 264.0011 14.19902915255649
GOES 18                 
1 51850U 22021A   26161.02767789  .00000114  00000+0  00000+0 0  9992
2 51850   0.0448 130.4208 0000472  17.5522 343.3826  1.00271105  6529
NOAA 21 (JPSS-2)        
1 54234U 22150A   26161.54972967  .00000035  00000+0  37462-4 0  9996
2 54234  98.7059 100.4503 0001290 169.4822 190.6382 14.19564328185607
METEOSAT-12 (MTG-I1)    
1 54743U 22170C   26161.33982777  .00000009  00000+0  00000+0 0  9994
2 54743   0.7304  21.7551 0003304  71.8076 287.0516  1.00271665 12908
TIANMU-1 03             
1 55973U 23039A   26161.64732131  .00013815  00000+0  27439-3 0  9994
2 55973  97.5232 335.3622 0004203 115.4889 244.6795 15.47099078179822
TIANMU-1 04             
1 55974U 23039B   26161.57465715  .00014152  00000+0  27536-3 0  9991
2 55974  97.5170 334.4398 0004775 112.5774 247.5982 15.47688918179826
TIANMU-1 05             
1 55975U 23039C   26161.62777463  .00013883  00000+0  27645-3 0  9995
2 55975  97.5212 334.9592 0003844 129.9857 230.1731 15.47024798179803
TIANMU-1 06             
1 55976U 23039D   26161.57763066  .00014000  00000+0  27332-3 0  9999
2 55976  97.5223 335.5361 0004128 127.0287 233.1341 15.47595348179825
FENGYUN 3G              
1 56232U 23055A   26160.12520916  .00022526  00000+0  34170-3 0  9998
2 56232  49.9935  27.5514 0005565 167.7824 192.3280 15.54457419178757
METEOR-M2 3             
1 57166U 23091A   26161.63433869 -.00000015  00000+0  12270-4 0  9990
2 57166  98.6091 216.7465 0003986 172.5465 187.5774 14.24046212153584
TIANMU-1 07             
1 57399U 23101A   26161.62438896  .00005667  00000+0  19931-3 0  9991
2 57399  97.2600 212.4436 0003746 134.9483 225.2062 15.29730765160644
TIANMU-1 08             
1 57400U 23101B   26161.59104897  .00005359  00000+0  18858-3 0  9996
2 57400  97.2588 212.1826 0005275 131.2337 228.9359 15.29735239160638
TIANMU-1 09             
1 57401U 23101C   26161.64000384  .00005592  00000+0  19650-3 0  9999
2 57401  97.2547 211.6496 0004148 141.7677 218.3859 15.29764602160647
TIANMU-1 10             
1 57402U 23101D   26161.60752059  .00005736  00000+0  20162-3 0  9999
2 57402  97.2625 212.6616 0005738 143.6973 216.4658 15.29735291160633
FENGYUN 3F              
1 57490U 23111A   26161.63234009  .00000012  00000+0  26207-4 0  9999
2 57490  98.6841 231.7629 0001590  97.9860 262.1497 14.19937936147934
ARKTIKA-M 2             
1 58584U 23198A   26160.78386103  .00000212  00000+0  00000+0 0  9997
2 58584  63.2205 155.1874 6900401 267.4353  18.7899  2.00606537 18179
TIANMU-1 11             
1 58645U 23205A   26161.63140816  .00004892  00000+0  18754-3 0  9995
2 58645  97.3452 183.2912 0009722  38.5558 321.6374 15.26927211136529
TIANMU-1 12             
1 58646U 23205B   26161.60161486  .00005325  00000+0  20423-3 0  9997
2 58646  97.3440 183.0189 0007539  26.2131 333.9488 15.26889625136502
TIANMU-1 13             
1 58647U 23205C   26161.56762588  .00004887  00000+0  18854-3 0  9990
2 58647  97.3468 183.2571 0006709   6.5366 353.5959 15.26743329136498
TIANMU-1 14             
1 58648U 23205D   26161.61856490  .00005021  00000+0  19334-3 0  9998
2 58648  97.3404 182.4942 0007687   9.9628 350.1762 15.26788428136502
TIANMU-1 19             
1 58660U 23208A   26161.55732017  .00007131  00000+0  23716-3 0  9999
2 58660  97.4492 277.8242 0004351 356.6135   3.5076 15.31473285136310
