OBJECT_NAME,OBJECT_ID,EPOCH,MEAN_MOTION,ECCENTRICITY,INCLINATION,RA_OF_ASC_NODE,ARG_OF_PERICENTER,MEAN_ANOMALY,EPHEMERIS_TYPE,CLASSIFICATION_TYPE,NORAD_CAT_ID,ELEMENT_SET_NO,REV_AT_EPOCH,BSTAR,MEAN_MOTION_DOT,MEAN_MOTION_DDOT
FENGYUN 3D,2017-072A,2026-06-10T14:14:12.645888,14.19737266,.00026566,99.0123,135.8962,72.5601,287.5865,0,U,43010,999,44405,-.90686657E-4,-.238E-5,0
NOAA 20 (JPSS-1),2017-073A,2026-06-10T14:05:22.968096,14.19510532,.00003899,98.7772,101.1084,51.3333,308.7878,0,U,43013,999,44353,.41119178E-4,.42E-6,0
GOES 17,2018-022A,2026-06-10T12:51:56.930112,1.00271146,.00005236,0.9194,85.8321,20.0838,256.4799,0,U,43226,999,3035,0,-.165E-5,0
SENTINEL-3B,2018-039A,2026-06-10T14:20:23.108352,14.26739879,.00008232,98.6249,229.2242,80.1829,279.9444,0,U,43437,999,42318,.51180986E-4,.8E-6,0
FENGYUN 2H,2018-050A,2026-06-10T11:57:31.493088,1.00270758,.00016849,3.0128,79.1544,128.6364,309.8929,0,U,43491,999,2937,0,-.114E-5,0
METOP-C,2018-087A,2026-06-10T14:13:03.563040,14.21510315,.00015256,98.6646,221.3163,136.8562,223.2735,0,U,43689,999,39389,.53071375E-4,.73E-6,0
GEO-KOMPSAT-2A,2018-100A,2026-06-10T11:59:38.503680,1.00270047,.00022067,0.0406,142.1603,303.3581,121.5075,0,U,43823,999,2756,0,-.326E-5,0
METEOR-M2 2,2019-038A,2026-06-10T13:42:38.907360,14.24364928,.00022469,98.9145,148.7590,57.9837,302.1559,0,U,44387,999,36035,.12343307E-3,.239E-5,0
ARKTIKA-M 1,2021-016A,2026-06-09T12:22:37.726752,2.00625436,.7285674,63.2417,58.7595,269.8905,14.6803,0,U,47719,999,3863,0,-.149E-5,0
FENGYUN 3E,2021-062A,2026-06-10T13:52:02.270784,14.19902915,.00027629,98.7496,165.0595,96.1480,264.0011,0,U,49008,999,25564,-.19953749E-4,-.86E-6,0
GOES 18,2022-021A,2026-06-10T00:39:51.369696,1.00271105,.00004729,0.0448,130.4208,17.5522,343.3826,0,U,51850,999,652,0,.114E-5,0
NOAA 21 (JPSS-2),2022-150A,2026-06-10T13:11:36.643488,14.19564328,.000129,98.7059,100.4503,169.4822,190.6382,0,U,54234,999,18560,.37461818E-4,.35E-6,0
METEOSAT-12 (MTG-I1),2022-170C,2026-06-10T08:09:21.119328,1.00271665,.00033044,0.7304,21.7551,71.8076,287.0516,0,U,54743,999,1290,0,.9E-7,0
TIANMU-1 03,2023-039A,2026-06-10T15:32:08.561184,15.47099078,.00042034,97.5232,335.3622,115.4889,244.6795,0,U,55973,999,17982,.27438907E-3,.13815E-3,0
TIANMU-1 04,2023-039B,2026-06-10T13:47:30.377760,15.47688918,.00047758,97.5170,334.4398,112.5774,247.5982,0,U,55974,999,17982,.27535576E-3,.14152E-3,0
TIANMU-1 05,2023-039C,2026-06-10T15:03:59.728032,15.47024798,.00038447,97.5212,334.9592,129.9857,230.1731,0,U,55975,999,17980,.27644722E-3,.13883E-3,0
TIANMU-1 06,2023-039D,2026-06-10T13:51:47.289024,15.47595348,.00041287,97.5223,335.5361,127.0287,233.1341,0,U,55976,999,17982,.27331706E-3,.14E-3,0
FENGYUN 3G,2023-055A,2026-06-09T03:00:18.071424,15.54457419,.0005565,49.9935,27.5514,167.7824,192.3280,0,U,56232,999,17875,.34170294E-3,.22526E-3,0
METEOR-M2 3,2023-091A,2026-06-10T15:13:26.862816,14.24046212,.00039864,98.6091,216.7465,172.5465,187.5774,0,U,57166,999,15358,.12270135E-4,-.15E-6,0
TIANMU-1 07,2023-101A,2026-06-10T14:59:07.206144,15.29730765,.00037464,97.2600,212.4436,134.9483,225.2062,0,U,57399,999,16064,.19930753E-3,.5667E-4,0
TIANMU-1 08,2023-101B,2026-06-10T14:11:06.631008,15.29735239,.0005275,97.2588,212.1826,131.2337,228.9359,0,U,57400,999,16063,.18857737E-3,.5359E-4,0
TIANMU-1 09,2023-101C,2026-06-10T15:21:36.331776,15.29764602,.00041484,97.2547,211.6496,141.7677,218.3859,0,U,57401,999,16064,.19650159E-3,.5592E-4,0
TIANMU-1 10,2023-101D,2026-06-10T14:34:49.778976,15.29735291,.00057388,97.2625,212.6616,143.6973,216.4658,0,U,57402,999,16063,.20162097E-3,.5736E-4,0
FENGYUN 3F,2023-111A,2026-06-10T15:10:34.183776,14.19937936,.00015906,98.6841,231.7629,97.9860,262.1497,0,U,57490,999,14793,.26207083E-4,.12E-6,0
ARKTIKA-M 2,2023-198A,2026-06-09T18:48:45.592992,2.00606537,.69004015,63.2205,155.1874,267.4353,18.7899,0,U,58584,999,1817,0,.212E-5,0
TIANMU-1 11,2023-205A,2026-06-10T15:09:13.665024,15.26927211,.0009722,97.3452,183.2912,38.5558,321.6374,0,U,58645,999,13652,.18754112E-3,.4892E-4,0
TIANMU-1 12,2023-205B,2026-06-10T14:26:19.523904,15.26889625,.00075397,97.3440,183.0189,26.2131,333.9488,0,U,58646,999,13650,.2042292E-3,.5325E-4,0
TIANMU-1 13,2023-205C,2026-06-10T13:37:22.876032,15.26743329,.0006709,97.3468,183.2571,6.5366,353.5959,0,U,58647,999,13649,.18853847E-3,.4887E-4,0
TIANMU-1 14,2023-205D,2026-06-10T14:50:44.007360,15.26788428,.00076874,97.3404,182.4942,9.9628,350.1762,0,U,58648,999,13650,.19333623E-3,.5021E-4,0
TIANMU-1 19,2023-208A,2026-06-10T13:22:32.462688,15.31473285,.00043512,97.4492,277.8242,356.6135,3.5076,0,U,58660,999,13631,.23716133E-3,.7131E-4,0
